[{"OBJECT_NAME":"STARLINK-5479","OBJECT_ID":"2023-021AL","EPOCH":"2026-03-09T15:40:35.802624","MEAN_MOTION":14.97521079,"ECCENTRICITY":0.00030974,"INCLINATION":70.0006,"RA_OF_ASC_NODE":164.3838,"ARG_OF_PERICENTER":266.5141,"MEAN_ANOMALY":93.5663,"EPHEMERIS_TYPE":0,"CLASSIFICATION_TYPE":"U","NORAD_CAT_ID":55662,"ELEMENT_SET_NO":999,"REV_AT_EPOCH":16928,"BSTAR":-5.6671748e-5,"MEAN_MOTION_DOT":-7.54e-6,"MEAN_MOTION_DDOT":0},{"OBJECT_NAME":"SOAP","OBJECT_ID":"2025-052BF","EPOCH":"2026-03-10T00:02:28.605408","MEAN_MOTION":14.96239557,"ECCENTRICITY":0.00016838,"INCLINATION":97.698,"RA_OF_ASC_NODE":323.0105,"ARG_OF_PERICENTER":5.2797,"MEAN_ANOMALY":354.8442,"EPHEMERIS_TYPE":0,"CLASSIFICATION_TYPE":"U","NORAD_CAT_ID":63263,"ELEMENT_SET_NO":999,"REV_AT_EPOCH":5385,"BSTAR":0.00031886977,"MEAN_MOTION_DOT":3.541e-5,"MEAN_MOTION_DDOT":0}]
